{
  "type": "FeatureCollection",
  "features": [
    {
      "type": "Feature",
      "properties": {
        "norad_id": 66800,
        "name": "STARLINK-35996",
        "group": "last-30-days",
        "lat": 35.58077800664838,
        "lon": -81.75704500132636,
        "alt_km": 336.9269469059782,
        "timestamp": "2025-12-16T15:45:49.733024+00:00",
        "meta_object_name": "STARLINK-35996",
        "meta_object_id": "2025-278K",
        "meta_epoch": "2025-12-15T22:00:01.999584",
        "meta_mean_motion": 15.78205998,
        "meta_eccentricity": 0.00014518,
        "meta_inclination": 42.9979,
        "meta_ra_of_asc_node": 232.5901,
        "meta_arg_of_pericenter": 278.4161,
        "meta_mean_anomaly": 252.8572,
        "meta_ephemeris_type": 0,
        "meta_classification_type": "U",
        "meta_norad_cat_id": 66800,
        "meta_element_set_no": 999,
        "meta_rev_at_epoch": 325,
        "meta_bstar": -0.0086479788,
        "meta_mean_motion_dot": -0.01363075,
        "meta_mean_motion_ddot": 0,
        "tle_line1": "1 66800U 25278K   25349.91668981 -.01363075  00000+0 -86480-2 0  9999",
        "tle_line2": "2 66800  42.9979 232.5901 0001451 278.4161 252.8572 15.78205998  3259"
      },
      "geometry": {
        "type": "Point",
        "coordinates": [
          -81.75704500132636,
          35.58077800664838
        ]
      }
    },
    {
      "type": "Feature",
      "properties": {
        "norad_id": 66801,
        "name": "STARLINK-36080",
        "group": "last-30-days",
        "lat": 39.36438450833913,
        "lon": -70.24390700387657,
        "alt_km": 337.6096314648248,
        "timestamp": "2025-12-16T15:45:49.733036+00:00",
        "meta_object_name": "STARLINK-36080",
        "meta_object_id": "2025-278L",
        "meta_epoch": "2025-12-15T22:00:01.999584",
        "meta_mean_motion": 15.77968185,
        "meta_eccentricity": 0.00014823,
        "meta_inclination": 42.9978,
        "meta_ra_of_asc_node": 232.5627,
        "meta_arg_of_pericenter": 271.7118,
        "meta_mean_anomaly": 270.2416,
        "meta_ephemeris_type": 0,
        "meta_classification_type": "U",
        "meta_norad_cat_id": 66801,
        "meta_element_set_no": 999,
        "meta_rev_at_epoch": 346,
        "meta_bstar": -0.0092153863,
        "meta_mean_motion_dot": -0.01428504,
        "meta_mean_motion_ddot": 0,
        "tle_line1": "1 66801U 25278L   25349.91668981 -.01428504  00000+0 -92154-2 0  9994",
        "tle_line2": "2 66801  42.9978 232.5627 0001482 271.7118 270.2416 15.77968185  3463"
      },
      "geometry": {
        "type": "Point",
        "coordinates": [
          -70.24390700387657,
          39.36438450833913
        ]
      }
    },
    {
      "type": "Feature",
      "properties": {
        "norad_id": 66802,
        "name": "STARLINK-35604",
        "group": "last-30-days",
        "lat": 34.674140390408716,
        "lon": -83.97168573763084,
        "alt_km": 336.9967693582994,
        "timestamp": "2025-12-16T15:45:49.733051+00:00",
        "meta_object_name": "STARLINK-35604",
        "meta_object_id": "2025-278M",
        "meta_epoch": "2025-12-15T22:00:01.999584",
        "meta_mean_motion": 15.78257878,
        "meta_eccentricity": 0.00014738,
        "meta_inclination": 42.998,
        "meta_ra_of_asc_node": 232.5958,
        "meta_arg_of_pericenter": 267.0515,
        "meta_mean_anomaly": 262.0041,
        "meta_ephemeris_type": 0,
        "meta_classification_type": "U",
        "meta_norad_cat_id": 66802,
        "meta_element_set_no": 999,
        "meta_rev_at_epoch": 346,
        "meta_bstar": -0.008458273,
        "meta_mean_motion_dot": -0.0133918,
        "meta_mean_motion_ddot": 0,
        "tle_line1": "1 66802U 25278M   25349.91668981 -.01339180  00000+0 -84583-2 0  9993",
        "tle_line2": "2 66802  42.9980 232.5958 0001473 267.0515 262.0041 15.78257878  3467"
      },
      "geometry": {
        "type": "Point",
        "coordinates": [
          -83.97168573763084,
          34.674140390408716
        ]
      }
    },
    {
      "type": "Feature",
      "properties": {
        "norad_id": 66803,
        "name": "STARLINK-35565",
        "group": "last-30-days",
        "lat": 36.415249911770545,
        "lon": -79.57547917575037,
        "alt_km": 337.15330128471214,
        "timestamp": "2025-12-16T15:45:49.733061+00:00",
        "meta_object_name": "STARLINK-35565",
        "meta_object_id": "2025-278N",
        "meta_epoch": "2025-12-15T22:00:01.999584",
        "meta_mean_motion": 15.78184845,
        "meta_eccentricity": 0.00015985,
        "meta_inclination": 42.9979,
        "meta_ra_of_asc_node": 232.5851,
        "meta_arg_of_pericenter": 275.3632,
        "meta_mean_anomaly": 257.9795,
        "meta_ephemeris_type": 0,
        "meta_classification_type": "U",
        "meta_norad_cat_id": 66803,
        "meta_element_set_no": 999,
        "meta_rev_at_epoch": 355,
        "meta_bstar": -0.0088374897,
        "meta_mean_motion_dot": -0.01388544,
        "meta_mean_motion_ddot": 0,
        "tle_line1": "1 66803U 25278N   25349.91668981 -.01388544  00000+0 -88375-2 0  9995",
        "tle_line2": "2 66803  42.9979 232.5851 0001598 275.3632 257.9795 15.78184845  3550"
      },
      "geometry": {
        "type": "Point",
        "coordinates": [
          -79.57547917575037,
          36.415249911770545
        ]
      }
    },
    {
      "type": "Feature",
      "properties": {
        "norad_id": 66804,
        "name": "STARLINK-36038",
        "group": "last-30-days",
        "lat": 37.23833305222799,
        "lon": -77.26328968319066,
        "alt_km": 337.24266719298066,
        "timestamp": "2025-12-16T15:45:49.733072+00:00",
        "meta_object_name": "STARLINK-36038",
        "meta_object_id": "2025-278P",
        "meta_epoch": "2025-12-15T22:00:01.999584",
        "meta_mean_motion": 15.78110541,
        "meta_eccentricity": 0.00013653,
        "meta_inclination": 42.9982,
        "meta_ra_of_asc_node": 232.5793,
        "meta_arg_of_pericenter": 271.3165,
        "meta_mean_anomaly": 264.275,
        "meta_ephemeris_type": 0,
        "meta_classification_type": "U",
        "meta_norad_cat_id": 66804,
        "meta_element_set_no": 999,
        "meta_rev_at_epoch": 346,
        "meta_bstar": -0.008927672,
        "meta_mean_motion_dot": -0.01396789,
        "meta_mean_motion_ddot": 0,
        "tle_line1": "1 66804U 25278P   25349.91668981 -.01396789  00000+0 -89277-2 0  9998",
        "tle_line2": "2 66804  42.9982 232.5793 0001365 271.3165 264.2750 15.78110541  3463"
      },
      "geometry": {
        "type": "Point",
        "coordinates": [
          -77.26328968319066,
          37.23833305222799
        ]
      }
    },
    {
      "type": "Feature",
      "properties": {
        "norad_id": 66805,
        "name": "STARLINK-36049",
        "group": "last-30-days",
        "lat": 38.70141426490851,
        "lon": -72.63337029575649,
        "alt_km": 337.34132545394914,
        "timestamp": "2025-12-16T15:45:49.733083+00:00",
        "meta_object_name": "STARLINK-36049",
        "meta_object_id": "2025-278Q",
        "meta_epoch": "2025-12-15T22:00:01.999584",
        "meta_mean_motion": 15.78023935,
        "meta_eccentricity": 0.00013659,
        "meta_inclination": 42.9978,
        "meta_ra_of_asc_node": 232.5685,
        "meta_arg_of_pericenter": 278.0721,
        "meta_mean_anomaly": 261.7508,
        "meta_ephemeris_type": 0,
        "meta_classification_type": "U",
        "meta_norad_cat_id": 66805,
        "meta_element_set_no": 999,
        "meta_rev_at_epoch": 346,
        "meta_bstar": -0.0091711785,
        "meta_mean_motion_dot": -0.01425554,
        "meta_mean_motion_ddot": 0,
        "tle_line1": "1 66805U 25278Q   25349.91668981 -.01425554  00000+0 -91712-2 0  9999",
        "tle_line2": "2 66805  42.9978 232.5685 0001365 278.0721 261.7508 15.78023935  3464"
      },
      "geometry": {
        "type": "Point",
        "coordinates": [
          -72.63337029575649,
          38.70141426490851
        ]
      }
    },
    {
      "type": "Feature",
      "properties": {
        "norad_id": 66806,
        "name": "STARLINK-36069",
        "group": "last-30-days",
        "lat": 37.9821278353678,
        "lon": -75.00469405587924,
        "alt_km": 337.3362538969377,
        "timestamp": "2025-12-16T15:45:49.733093+00:00",
        "meta_object_name": "STARLINK-36069",
        "meta_object_id": "2025-278R",
        "meta_epoch": "2025-12-15T22:00:01.999584",
        "meta_mean_motion": 15.78090831,
        "meta_eccentricity": 0.00015221,
        "meta_inclination": 42.9981,
        "meta_ra_of_asc_node": 232.5745,
        "meta_arg_of_pericenter": 273.4,
        "meta_mean_anomaly": 264.214,
        "meta_ephemeris_type": 0,
        "meta_classification_type": "U",
        "meta_norad_cat_id": 66806,
        "meta_element_set_no": 999,
        "meta_rev_at_epoch": 325,
        "meta_bstar": -0.0090359835,
        "meta_mean_motion_dot": -0.01410801,
        "meta_mean_motion_ddot": 0,
        "tle_line1": "1 66806U 25278R   25349.91668981 -.01410801  00000+0 -90360-2 0  9997",
        "tle_line2": "2 66806  42.9981 232.5745 0001522 273.4000 264.2140 15.78090831  3256"
      },
      "geometry": {
        "type": "Point",
        "coordinates": [
          -75.00469405587924,
          37.9821278353678
        ]
      }
    }
  ]
}